M2 PATHFINDER           
1 45727U 20037E   26196.50814969  .00000617  00000+0  48206-4 0  9990
2 45727  97.8142  28.0603 0012891  61.5732 298.6791 15.04791762329752
NETSAT-4                
1 46504U 20068U   26196.76402553  .00011442  00000+0  24657-3 0  9999
2 46504  97.8600 207.3212 0004833 191.3193 168.7946 15.44769251320182
NETSAT-3                
1 46505U 20068V   26195.94911260  .00010624  00000+0  23832-3 0  9994
2 46505  97.8649 204.6225 0003766 212.3316 147.7700 15.43602426319963
NETSAT-1                
1 46506U 20068W   26196.81894434  .00006778  00000+0  20064-3 0  9994
2 46506  97.8751 199.5489 0002492 258.0538 102.0424 15.35253566319695
NETSAT-2                
1 46507U 20068X   26196.43864627  .00014174  00000+0  28095-3 0  9995
2 46507  97.8610 206.9725 0002170 207.0405 153.0731 15.47169932320107
GREENCUBE (IO-117)      
1 53109U 22080E   26196.19885268 -.00000003  00000+0  00000+0 0  9993
2 53109  70.1411 288.5050 0009069 283.3508  76.6141  6.42583355 93867
SITRO-AIS 5 (KATYS)     
1 57176U 23091L   26196.78536840  .00006861  00000+0  23804-3 0  9996
2 57176  97.5045 260.9669 0010593  10.4684 349.6775 15.30073114168716
SITRO-AIS 6 (CHIRKIN)   
1 57192U 23091AC  26196.83129060  .00005204  00000+0  20227-3 0  9998
2 57192  97.5053 259.9780 0011086  14.3690 345.7862 15.26444442168651
SITRO-AIS 8 (ANOKHIN)   
1 57193U 23091AD  26196.81659809  .00008020  00000+0  25486-3 0  9997
2 57193  97.5043 262.7063 0009465   5.9562 354.1791 15.32867705168832
SITRO-AIS 7 (FARTUSHNIY)
1 57194U 23091AE  26196.77485273  .00005134  00000+0  20157-3 0  9998
2 57194  97.5049 259.7311 0011080  15.8484 344.3099 15.26117496168638
SITRO-AIS 10 (BURDAEV)  
1 57199U 23091AK  26196.85495212  .00011569  00000+0  29537-3 0  9996
2 57199  97.5069 268.1021 0004792 338.4673  21.6371 15.39643441169179
SITRO-AIS 9 (SHCHUKIN)  
1 57201U 23091AM  26196.82569561  .00011305  00000+0  29357-3 0  9994
2 57201  97.5067 267.7792 0005083 339.1530  20.9507 15.39126663169158
SITRO-AIS 12 (SMIRENNIY)
1 57204U 23091AQ  26196.81085966  .00011267  00000+0  28982-3 0  9998
2 57204  97.5080 268.2492 0004633 331.3970  28.7021 15.39422660169176
SITRO-AIS 11 (SHEFFER)  
1 57208U 23091AU  26196.81620139  .00011566  00000+0  29316-3 0  9993
2 57208  97.5079 268.5195 0004527 330.7125  29.3867 15.39866033169191
SITRO-AIS 25            
1 59066U 24039R   26196.84972630  .00001902  00000+0  15004-3 0  9991
2 59066  95.3892 254.7887 0142826 227.2039 131.7107 14.93645326129008
SITRO-AIS 26            
1 59067U 24039S   26196.85504907  .00001737  00000+0  13799-3 0  9996
2 59067  95.3892 254.6840 0143160 227.8063 131.0938 14.93437092128993
SITRO-AIS 27            
1 59068U 24039T   26196.88419501  .00001290  00000+0  10231-3 0  9997
2 59068  95.3897 254.9892 0142236 226.2138 132.7252 14.93860341129027
SITRO-AIS 28            
1 59071U 24039U   26196.86099839  .00001637  00000+0  12894-3 0  9999
2 59071  95.3896 255.0221 0142131 226.1447 132.7965 14.93895248129029
GRBBETA                 
1 60237U 24128C   26196.75673113  .00001799  00000+0  13301-3 0  9998
2 60237  61.9898 116.0164 0036966 140.7889 219.5893 15.06811071110578
OOV-CUBE (TUBSAT-30)    
1 60240U 24128F   26196.79932352  .00000956  00000+0  85526-4 0  9992
2 60240  61.9938 125.7955 0041038 140.1707 220.2409 15.02875215110412
ROBUSTA-3A (MEDITERRAN*)
1 60243U 24128J   26196.83980539  .00003891  00000+0  23481-3 0  9992
2 60243  61.9865 106.8945 0038064 133.8910 226.5340 15.11992672110750
LASARSAT                
1 62391U 24247Q   26196.77121494  .00023596  00000+0  44538-3 0  9990
2 62391  44.9738 101.3784 0007484 169.7911 190.3132 15.48070783 87747
CROCUBE                 
1 62394U 24247T   26196.08738532  .00025934  00000+0  45370-3 0  9997
2 62394  44.9722 102.0802 0007544 171.5148 188.5872 15.50189566 87677
FORESAIL-1 PRIME        
1 66778U 25276DS  26196.78712619  .00002309  00000+0  11377-3 0  9996
2 66778  97.4192 269.5370 0002852  43.1947 316.9511 15.18941111 34741
KNACKSAT-2              
1 67683U 98067XZ  26196.25870215  .00034050  00000+0  38021-3 0  9992
2 67683  51.6274 153.0107 0007992 328.5700  31.4815 15.62408935 24669
