OBJECT_NAME,OBJECT_ID,EPOCH,MEAN_MOTION,ECCENTRICITY,INCLINATION,RA_OF_ASC_NODE,ARG_OF_PERICENTER,MEAN_ANOMALY,EPHEMERIS_TYPE,CLASSIFICATION_TYPE,NORAD_CAT_ID,ELEMENT_SET_NO,REV_AT_EPOCH,BSTAR,MEAN_MOTION_DOT,MEAN_MOTION_DDOT
M2 PATHFINDER,2020-037E,2026-07-15T12:11:44.133216,15.04791762,.0012891,97.8142,28.0603,61.5732,298.6791,0,U,45727,999,32975,.48205888E-4,.617E-5,0
NETSAT-4,2020-068U,2026-07-15T18:20:11.805792,15.44769251,.0004833,97.8600,207.3212,191.3193,168.7946,0,U,46504,999,32018,.24657E-3,.11442E-3,0
NETSAT-3,2020-068V,2026-07-14T22:46:43.328640,15.43602426,.00037661,97.8649,204.6225,212.3316,147.7700,0,U,46505,999,31996,.23831624E-3,.10624E-3,0
NETSAT-1,2020-068W,2026-07-15T19:39:16.790976,15.35253566,.0002492,97.8751,199.5489,258.0538,102.0424,0,U,46506,999,31969,.20064E-3,.6778E-4,0
NETSAT-2,2020-068X,2026-07-15T10:31:39.037728,15.47169932,.000217,97.8610,206.9725,207.0405,153.0731,0,U,46507,999,32010,.28095025E-3,.14174E-3,0
GREENCUBE (IO-117),2022-080E,2026-07-15T04:46:20.871552,6.42583355,.00090693,70.1411,288.5050,283.3508,76.6141,0,U,53109,999,9386,0,-.3E-7,0
SITRO-AIS 5 (KATYS),2023-091L,2026-07-15T18:50:55.829760,15.30073114,.0010593,97.5045,260.9669,10.4684,349.6775,0,U,57176,999,16871,.23804E-3,.6861E-4,0
SITRO-AIS 6 (CHIRKIN),2023-091AC,2026-07-15T19:57:03.507840,15.26444442,.0011086,97.5053,259.9780,14.3690,345.7862,0,U,57192,999,16865,.20227E-3,.5204E-4,0
SITRO-AIS 8 (ANOKHIN),2023-091AD,2026-07-15T19:35:54.074976,15.32867705,.0009465,97.5043,262.7063,5.9562,354.1791,0,U,57193,999,16883,.25486E-3,.802E-4,0
SITRO-AIS 7 (FARTUSHNIY),2023-091AE,2026-07-15T18:35:47.275872,15.26117496,.001108,97.5049,259.7311,15.8484,344.3099,0,U,57194,999,16863,.20157E-3,.5134E-4,0
SITRO-AIS 10 (BURDAEV),2023-091AK,2026-07-15T20:31:07.863168,15.39643441,.0004792,97.5069,268.1021,338.4673,21.6371,0,U,57199,999,16917,.29537E-3,.11569E-3,0
SITRO-AIS 9 (SHCHUKIN),2023-091AM,2026-07-15T19:49:00.100704,15.39126663,.0005083,97.5067,267.7792,339.1530,20.9507,0,U,57201,999,16915,.29357E-3,.11305E-3,0
SITRO-AIS 12 (SMIRENNIY),2023-091AQ,2026-07-15T19:27:38.274624,15.39422660,.0004633,97.5080,268.2492,331.3970,28.7021,0,U,57204,999,16917,.28982E-3,.11267E-3,0
SITRO-AIS 11 (SHEFFER),2023-091AU,2026-07-15T19:35:19.800096,15.39866033,.0004527,97.5079,268.5195,330.7125,29.3867,0,U,57208,999,16919,.29316E-3,.11566E-3,0
SITRO-AIS 25,2024-039R,2026-07-15T20:23:36.352320,14.93645326,.0142826,95.3892,254.7887,227.2039,131.7107,0,U,59066,999,12900,.15004E-3,.1902E-4,0
SITRO-AIS 26,2024-039S,2026-07-15T20:31:16.239648,14.93437092,.014316,95.3892,254.6840,227.8063,131.0938,0,U,59067,999,12899,.13799E-3,.1737E-4,0
SITRO-AIS 27,2024-039T,2026-07-15T21:13:14.448864,14.93860341,.0142236,95.3897,254.9892,226.2138,132.7252,0,U,59068,999,12902,.10231E-3,.129E-4,0
SITRO-AIS 28,2024-039U,2026-07-15T20:39:50.260896,14.93895248,.0142131,95.3896,255.0221,226.1447,132.7965,0,U,59071,999,12902,.12894E-3,.1637E-4,0
GRBBETA,2024-128C,2026-07-15T18:09:41.569632,15.06811071,.0036966,61.9898,116.0164,140.7889,219.5893,0,U,60237,999,11057,.13301E-3,.1799E-4,0
OOV-CUBE (TUBSAT-30),2024-128F,2026-07-15T19:11:01.552128,15.02875215,.0041038,61.9938,125.7955,140.1707,220.2409,0,U,60240,999,11041,.85526E-4,.956E-5,0
ROBUSTA-3A (MEDITERRANEE),2024-128J,2026-07-15T20:09:19.185696,15.11992672,.0038064,61.9865,106.8945,133.8910,226.5340,0,U,60243,999,11075,.23481E-3,.3891E-4,0
LASARSAT,2024-247Q,2026-07-15T18:30:32.970816,15.48070783,.0007484,44.9738,101.3784,169.7911,190.3132,0,U,62391,999,8774,.44538E-3,.23596E-3,0
CROCUBE,2024-247T,2026-07-15T02:05:50.091648,15.50189566,.0007544,44.9722,102.0802,171.5148,188.5872,0,U,62394,999,8767,.45369582E-3,.25934E-3,0
FORESAIL-1 PRIME,2025-276DS,2026-07-15T18:53:27.702816,15.18941111,.0002852,97.4192,269.5370,43.1947,316.9511,0,U,66778,999,3474,.11377E-3,.2309E-4,0
KNACKSAT-2,1998-067XZ,2026-07-15T06:12:31.865760,15.62408935,.00079923,51.6274,153.0107,328.5700,31.4815,0,U,67683,999,2466,.38021354E-3,.3405E-3,0
